NORAD_CAT_ID,OBJECT_NAME,OBJECT_TYPE,EPOCH,MEAN_MOTION,ECCENTRICITY,INCLINATION,RA_OF_ASC_NODE,ARG_OF_PERICENTER,MEAN_ANOMALY,BSTAR,MEAN_MOTION_DOT,MEAN_MOTION_DDOT,TLE_LINE0,TLE_LINE1,TLE_LINE2,SEMIMAJOR_AXIS,PERIOD,APOGEE,PERIGEE,DECAYED
53570.0,STARLINK-4550,PAYLOAD,2023-11-10 14:41:28,15.08841317,0.0001484,53.2163,270.175,99.5994,260.5166,0.00066383,0.00010293,0.0,0 STARLINK-4550,1 53570U 22101AV  23314.61213575  .00010293  00000-0  66383-3 0  9993,2 53570  53.2163 270.1750 0001484  99.5994 260.5166 15.08841317 68802,6917.876,95.437,540.768,538.715,0.0
53570.0,STARLINK-4550,PAYLOAD,2023-11-11 03:24:33,15.08837726,0.0001702,53.2172,267.7937,101.1497,258.9687,0.0008621,0.00013458,0.0,0 STARLINK-4550,1 53570U 22101AV  23315.14205949  .00013458  00000-0  86210-3 0  9995,2 53570  53.2172 267.7937 0001702 101.1497 258.9687 15.08837726 68192,6917.887,95.438,540.93,538.575,0.0
53570.0,STARLINK-4550,PAYLOAD,2023-11-11 06:35:19,15.08846052,0.0001717,53.2177,267.1977,104.232,255.8863,0.00068523,0.00010636,0.0,0 STARLINK-4550,1 53570U 22101AV  23315.27453678  .00010636  00000-0  68523-3 0  9995,2 53570  53.2177 267.1977 0001717 104.2320 255.8863 15.08846052 68903,6917.862,95.437,540.915,538.539,0.0
53570.0,STARLINK-4550,PAYLOAD,2023-11-12 03:15:21,15.08839664,0.000151,53.2179,263.3341,104.9394,255.1766,0.00031369,4.708e-05,0.0,0 STARLINK-4550,1 53570U 22101AV  23316.13566223  .00004708  00000-0  31369-3 0  9993,2 53570  53.2179 263.3341 0001510 104.9394 255.1766 15.08839664 68341,6917.881,95.438,540.791,538.702,0.0
53570.0,STARLINK-4550,PAYLOAD,2023-11-12 06:26:07,15.08840574,0.0001546,53.2181,262.738,91.9746,268.1423,0.00040802,6.212e-05,0.0,0 STARLINK-4550,1 53570U 22101AV  23316.26814116  .00006212  00000-0  40802-3 0  9998,2 53570  53.2181 262.7380 0001546  91.9746 268.1423 15.08840574 69050,6917.879,95.438,540.813,538.674,0.0
53570.0,STARLINK-4550,PAYLOAD,2023-11-13 03:06:08,15.08851114,0.0001645,53.2186,258.8702,94.1782,265.9398,0.00037616,5.705e-05,0.0,0 STARLINK-4550,1 53570U 22101AV  23317.12925985  .00005705  00000-0  37616-3 0  9996,2 53570  53.2186 258.8702 0001645  94.1782 265.9398 15.08851114 69186,6917.846,95.437,540.849,538.573,0.0
53570.0,STARLINK-4550,PAYLOAD,2023-11-13 20:35:22,15.08843976,0.0001542,53.2184,255.6,91.8287,268.2882,0.00020215,2.931e-05,0.0,0 STARLINK-4550,1 53570U 22101AV  23317.85790223  .00002931  00000-0  20215-3 0  9996,2 53570  53.2184 255.6000 0001542  91.8287 268.2882 15.08843976 69293,6917.868,95.437,540.8,538.667,0.0
53570.0,STARLINK-4550,PAYLOAD,2023-11-14 02:56:55,15.08841278,0.0001572,53.2182,254.412,97.8568,262.2603,8.8811e-05,1.126e-05,0.0,0 STARLINK-4550,1 53570U 22101AV  23318.12286228  .00001126  00000-0  88811-4 0  9994,2 53570  53.2182 254.4120 0001572  97.8568 262.2603 15.08841278 68648,6917.876,95.437,540.829,538.654,0.0
53570.0,STARLINK-4550,PAYLOAD,2023-11-14 12:29:14,15.0883848,0.0001575,53.2184,252.6276,87.7284,272.3888,1.9986e-05,3e-07,0.0,0 STARLINK-4550,1 53570U 22101AV  23318.52030319  .00000030  00000-0  19986-4 0  9996,2 53570  53.2184 252.6276 0001575  87.7284 272.3888 15.08838480 69399,6917.885,95.438,540.84,538.66,0.0
53570.0,STARLINK-4550,PAYLOAD,2023-11-15 04:23:05,15.08845163,0.0001587,53.2179,249.6546,86.6133,273.5041,0.00010929,1.452e-05,0.0,0 STARLINK-4550,1 53570U 22101AV  23319.18270157  .00001452  00000-0  10929-3 0  9991,2 53570  53.2179 249.6546 0001587  86.6133 273.5041 15.08845163 68808,6917.865,95.437,540.827,538.632,0.0
53570.0,STARLINK-4550,PAYLOAD,2023-11-16 04:13:52,15.08843702,0.0001677,53.2175,245.1952,77.9623,282.1557,0.00013944,1.932e-05,0.0,0 STARLINK-4550,1 53570U 22101AV  23320.17630340  .00001932  00000-0  13944-3 0  9999,2 53570  53.2175 245.1952 0001677  77.9623 282.1557 15.08843702 68954,6917.869,95.437,540.894,538.574,0.0
53570.0,STARLINK-4550,PAYLOAD,2023-11-17 04:04:39,15.08843615,0.0001538,53.2172,240.7339,92.9509,267.1659,5.6938e-06,-1.97e-06,0.0,0 STARLINK-4550,1 53570U 22101AV  23321.16990361 -.00000197  00000-0  56938-5 0  9996,2 53570  53.2172 240.7339 0001538  92.9509 267.1659 15.08843615 69104,6917.869,95.437,540.798,538.67,0.0
53570.0,STARLINK-4550,PAYLOAD,2023-11-17 12:01:36,15.08838675,0.0001798,53.2188,239.2475,88.9641,271.1557,-3.7065e-05,-8.78e-06,0.0,0 STARLINK-4550,1 53570U 22101AV  23321.50111143 -.00000878  00000-0 -37065-4 0  9993,2 53570  53.2188 239.2475 0001798  88.9641 271.1557 15.08838675 69152,6917.884,95.438,540.993,538.506,0.0
53570.0,STARLINK-4550,PAYLOAD,2023-11-18 11:52:22,15.08841212,0.000151,53.2181,234.7882,94.4539,265.6626,9.7915e-05,1.271e-05,0.0,0 STARLINK-4550,1 53570U 22101AV  23322.49470824  .00001271  00000-0  97915-4 0  9992,2 53570  53.2181 234.7882 0001510  94.4539 265.6626 15.08841212 69995,6917.877,95.437,540.786,538.697,0.0
53570.0,STARLINK-4550,PAYLOAD,2023-11-18 18:13:55,15.08852968,0.0001532,53.2181,233.5984,95.6334,264.4833,-2.6062e-05,-7.03e-06,0.0,0 STARLINK-4550,1 53570U 22101AV  23322.75966675 -.00000703  00000-0 -26062-4 0  9991,2 53570  53.2181 233.5984 0001532  95.6334 264.4833 15.08852968 69341,6917.841,95.437,540.766,538.646,0.0
53570.0,STARLINK-4550,PAYLOAD,2023-11-19 03:46:14,15.08807354,0.0001712,53.2174,231.8148,107.1888,252.9291,0.00082064,0.00012785,0.0,0 STARLINK-4550,1 53570U 22101AV  23323.15711096  .00012785  00000-0  82064-3 0  9995,2 53570  53.2174 231.8148 0001712 107.1888 252.9291 15.08807354 69405,6917.98,95.44,541.03,538.661,0.0
53570.0,STARLINK-4550,PAYLOAD,2023-11-19 11:43:09,15.08845173,0.0001484,53.217,230.3241,104.5595,255.5561,5.6675e-05,6.14e-06,0.0,0 STARLINK-4550,1 53570U 22101AV  23323.48830508  .00000614  00000-0  56675-4 0  9999,2 53570  53.2170 230.3241 0001484 104.5595 255.5561 15.08845173 69456,6917.865,95.437,540.756,538.703,0.0
53570.0,STARLINK-4550,PAYLOAD,2023-11-19 21:15:28,15.08836244,0.0001545,53.2163,228.542,97.8653,262.2514,8.1229e-05,1.005e-05,0.0,0 STARLINK-4550,1 53570U 22101AV  23323.88575019  .00001005  00000-0  81229-4 0  9994,2 53570  53.2163 228.5420 0001545  97.8653 262.2514 15.08836244 70200,6917.892,95.438,540.826,538.688,0.0
53570.0,STARLINK-4550,PAYLOAD,2023-11-20 00:26:15,15.08838082,0.0001583,53.2181,227.9498,89.4093,270.708,9.3962e-05,1.208e-05,0.0,0 STARLINK-4550,1 53570U 22101AV  23324.01822959  .00001208  00000-0  93962-4 0  9990,2 53570  53.2181 227.9498 0001583  89.4093 270.7080 15.08838082 69533,6917.886,95.438,540.846,538.656,0.0
53570.0,STARLINK-4550,PAYLOAD,2023-11-20 22:41:38,15.08847492,0.0001845,53.219,223.7847,93.8833,266.237,6.308e-06,-1.88e-06,0.0,0 STARLINK-4550,1 53570U 22101AV  23324.94558458 -.00000188  00000-0  63080-5 0  9998,2 53570  53.2190 223.7847 0001845  93.8833 266.2370 15.08847492 70367,6917.857,95.437,540.999,538.446,0.0
53570.0,STARLINK-4550,PAYLOAD,2023-11-21 01:52:24,15.08850413,0.0001571,53.2187,223.1926,88.599,271.5182,3.1725e-05,2.17e-06,0.0,0 STARLINK-4550,1 53570U 22101AV  23325.07806154  .00000217  00000-0  31725-4 0  9994,2 53570  53.2187 223.1926 0001571  88.5990 271.5182 15.08850413 69697,6917.849,95.437,540.8,538.627,0.0
53570.0,STARLINK-4550,PAYLOAD,2023-11-21 17:46:17,15.08830417,0.0001431,53.2183,220.2196,96.0823,264.0332,1.1663e-05,-1.02e-06,0.0,0 STARLINK-4550,1 53570U 22101AV  23325.74047712 -.00000102  00000-0  11663-4 0  9998,2 53570  53.2183 220.2196 0001431  96.0823 264.0332 15.08830417 69791,6917.91,95.438,540.765,538.785,0.0
53570.0,STARLINK-4550,PAYLOAD,2023-11-21 20:57:04,15.08817941,0.0001415,53.2185,219.6249,92.3258,267.7896,-9.3655e-05,-1.777e-05,0.0,0 STARLINK-4550,1 53570U 22101AV  23325.87296870 -.00001777  00000-0 -93655-4 0  9994,2 53570  53.2185 219.6249 0001415  92.3258 267.7896 15.08817941 70500,6917.948,95.439,540.792,538.834,0.0
53570.0,STARLINK-4550,PAYLOAD,2023-11-22 03:18:37,15.08821096,0.0001504,53.2176,218.4335,99.9399,260.1762,-8.5174e-05,-1.643e-05,0.0,0 STARLINK-4550,1 53570U 22101AV  23326.13792926 -.00001643  00000-0 -85174-4 0  9996,2 53570  53.2176 218.4335 0001504  99.9399 260.1762 15.08821096 69852,6917.938,95.439,540.844,538.763,0.0
53570.0,STARLINK-4550,PAYLOAD,2023-11-22 20:47:50,15.08843168,0.0001546,53.2187,215.1698,103.4037,256.7127,8.9512e-05,1.137e-05,0.0,0 STARLINK-4550,1 53570U 22101AV  23326.86655488  .00001137  00000-0  89512-4 0  9993,2 53570  53.2187 215.1698 0001546 103.4037 256.7127 15.08843168 70656,6917.871,95.437,540.805,538.666,0.0
53570.0,STARLINK-4550,PAYLOAD,2023-11-22 22:23:13,15.08846366,0.0001729,53.2174,214.8673,110.565,249.5527,0.00015778,2.224e-05,0.0,0 STARLINK-4550,1 53570U 22101AV  23326.93279197  .00002224  00000-0  15778-3 0  9990,2 53570  53.2174 214.8673 0001729 110.5650 249.5527 15.08846366 69974,6917.861,95.437,540.922,538.53,0.0
53570.0,STARLINK-4550,PAYLOAD,2023-11-23 15:52:28,15.08836241,0.0001664,53.2171,211.5937,117.0278,243.0884,0.00033724,5.083e-05,0.0,0 STARLINK-4550,1 53570U 22101AV  23327.66143888  .00005083  00000-0  33724-3 0  9995,2 53570  53.2171 211.5937 0001664 117.0278 243.0884 15.08836241 70084,6917.892,95.438,540.908,538.606,0.0
53570.0,STARLINK-4550,PAYLOAD,2023-11-23 22:14:00,15.08835404,0.000161,53.217,210.4033,119.3149,240.8004,0.00026442,3.922e-05,0.0,0 STARLINK-4550,1 53570U 22101AV  23327.92640037  .00003922  00000-0  26442-3 0  9991,2 53570  53.2170 210.4033 0001610 119.3149 240.8004 15.08835404 70811,6917.894,95.438,540.873,538.646,0.0
53570.0,STARLINK-4550,PAYLOAD,2023-11-24 01:24:47,15.08833713,0.0001394,53.2165,209.81,103.5805,256.5342,0.0002082,3.027e-05,0.0,0 STARLINK-4550,1 53570U 22101AV  23328.05888040  .00003027  00000-0  20820-3 0  9994,2 53570  53.2165 209.8100 0001394 103.5805 256.5342 15.08833713 70837,6917.9,95.438,540.729,538.8,0.0
53570.0,STARLINK-4550,PAYLOAD,2023-11-24 22:04:47,15.08847075,0.0001483,53.216,205.9456,94.8909,265.2253,-3.677e-05,-8.73e-06,0.0,0 STARLINK-4550,1 53570U 22101AV  23328.91999578 -.00000873  00000-0 -36770-4 0  9998,2 53570  53.2160 205.9456 0001483  94.8909 265.2253 15.08847075 70967,6917.859,95.437,540.75,538.698,0.0
